NORAD_CAT_ID,OBJECT_NAME,OBJECT_TYPE,EPOCH,MEAN_MOTION,ECCENTRICITY,INCLINATION,RA_OF_ASC_NODE,ARG_OF_PERICENTER,MEAN_ANOMALY,BSTAR,MEAN_MOTION_DOT,MEAN_MOTION_DDOT,TLE_LINE0,TLE_LINE1,TLE_LINE2,SEMIMAJOR_AXIS,PERIOD,APOGEE,PERIGEE,DECAYED
52656.0,STARLINK-4004,PAYLOAD,2024-01-02 11:49:48,15.0884268,0.0001284,53.2162,132.8874,76.4403,283.6732,5.6368e-05,6.09e-06,0.0,0 STARLINK-4004,1 52656U 22053A   24002.49292037  .00000609  00000-0  56368-4 0  9997,2 52656  53.2162 132.8874 0001284  76.4403 283.6732 15.08842680 90762,6917.872,95.437,540.625,538.849,0.0
52656.0,STARLINK-4004,PAYLOAD,2024-01-02 13:25:11,15.08843204,0.0001312,53.2163,132.59,73.7035,286.4102,5.7943e-05,6.34e-06,0.0,0 STARLINK-4004,1 52656U 22053A   24002.55915996  .00000634  00000-0  57943-4 0  9998,2 52656  53.2163 132.5900 0001312  73.7035 286.4102 15.08843204 90779,6917.871,95.437,540.643,538.828,0.0
52656.0,STARLINK-4004,PAYLOAD,2024-01-02 15:00:34,15.08845193,0.0001341,53.2162,132.2928,72.8504,287.2635,7.6811e-05,9.35e-06,0.0,0 STARLINK-4004,1 52656U 22053A   24002.62539814  .00000935  00000-0  76811-4 0  9996,2 52656  53.2162 132.2928 0001341  72.8504 287.2635 15.08845193 90788,6917.865,95.437,540.657,538.802,0.0
52656.0,STARLINK-4004,PAYLOAD,2024-01-03 11:40:35,15.08835967,0.0001303,53.2163,128.4255,85.1659,274.9481,-1.3847e-05,-5.08e-06,0.0,0 STARLINK-4004,1 52656U 22053A   24003.48652612 -.00000508  00000-0 -13847-4 0  9991,2 52656  53.2163 128.4255 0001303  85.1659 274.9481 15.08835967 90910,6917.893,95.438,540.659,538.856,0.0
52656.0,STARLINK-4004,PAYLOAD,2024-01-03 13:15:59,15.0883499,0.0001323,53.2163,128.1296,73.7856,286.3282,-7.5133e-06,-4.07e-06,0.0,0 STARLINK-4004,1 52656U 22053A   24003.55276708 -.00000407  00000-0 -75133-5 0  9992,2 52656  53.2163 128.1296 0001323  73.7856 286.3282 15.08834990 90928,6917.896,95.438,540.676,538.845,0.0
52656.0,STARLINK-4004,PAYLOAD,2024-01-03 14:51:22,15.08836256,0.0001302,53.2162,127.8316,80.7054,279.4086,-5.626e-06,-3.77e-06,0.0,0 STARLINK-4004,1 52656U 22053A   24003.61900603 -.00000377  00000-0 -56260-5 0  9993,2 52656  53.2162 127.8316 0001302  80.7054 279.4086 15.08836256 90934,6917.892,95.438,540.658,538.856,0.0
52656.0,STARLINK-4004,PAYLOAD,2024-01-04 13:06:45,15.08838798,0.0001245,53.2168,123.6681,86.5674,273.546,9.7246e-06,-1.33e-06,0.0,0 STARLINK-4004,1 52656U 22053A   24004.54636549 -.00000133  00000-0  97246-5 0  9999,2 52656  53.2168 123.6681 0001245  86.5674 273.5460 15.08838798 91077,6917.884,95.438,540.61,538.888,0.0
52656.0,STARLINK-4004,PAYLOAD,2024-01-05 12:57:33,15.08838414,0.0001222,53.2166,119.2087,88.073,272.0402,7.7298e-05,9.43e-06,0.0,0 STARLINK-4004,1 52656U 22053A   24005.53996618  .00000943  00000-0  77298-4 0  9997,2 52656  53.2166 119.2087 0001222  88.0730 272.0402 15.08838414 91223,6917.885,95.438,540.596,538.905,0.0
52656.0,STARLINK-4004,PAYLOAD,2024-01-06 11:12:57,15.08836061,0.0001223,53.2169,115.0447,87.782,272.3312,2.6321e-05,1.31e-06,0.0,0 STARLINK-4004,1 52656U 22053A   24006.46733136  .00000131  00000-0  26321-4 0  9994,2 52656  53.2169 115.0447 0001223  87.7820 272.3312 15.08836061 91361,6917.892,95.438,540.603,538.911,0.0
52656.0,STARLINK-4004,PAYLOAD,2024-01-06 12:48:20,15.08836698,0.0001227,53.217,114.7473,86.2256,273.8876,3.0566e-05,1.99e-06,0.0,0 STARLINK-4004,1 52656U 22053A   24006.53357110  .00000199  00000-0  30566-4 0  9996,2 52656  53.2170 114.7473 0001227  86.2256 273.8876 15.08836698 91377,6917.89,95.438,540.604,538.907,0.0
52656.0,STARLINK-4004,PAYLOAD,2024-01-06 14:23:43,15.08838445,0.000124,53.2171,114.4497,86.674,273.4394,4.3687e-05,4.07e-06,0.0,0 STARLINK-4004,1 52656U 22053A   24006.59980967  .00000407  00000-0  43687-4 0  9994,2 52656  53.2171 114.4497 0001240  86.6740 273.4394 15.08838445 91382,6917.885,95.438,540.608,538.892,0.0
52656.0,STARLINK-4004,PAYLOAD,2024-01-07 14:14:30,15.08846537,0.0001211,53.2168,109.9899,87.7089,272.4041,8.2202e-05,1.021e-05,0.0,0 STARLINK-4004,1 52656U 22053A   24007.59340441  .00001021  00000-0  82202-4 0  9991,2 52656  53.2168 109.9899 0001211  87.7089 272.4041 15.08846537 91535,6917.86,95.437,540.563,538.888,0.0
52656.0,STARLINK-4004,PAYLOAD,2024-01-08 10:54:31,15.08834044,0.0001296,53.2168,106.1263,68.7533,291.3598,6.9694e-05,8.21e-06,0.0,0 STARLINK-4004,1 52656U 22053A   24008.45453351  .00000821  00000-0  69694-4 0  9999,2 52656  53.2168 106.1263 0001296  68.7533 291.3598 15.08834044 91666,6917.899,95.438,540.66,538.867,0.0
52656.0,STARLINK-4004,PAYLOAD,2024-01-08 14:05:17,15.08841357,0.0001686,53.2178,105.5305,58.6293,301.4864,9.7938e-05,1.271e-05,0.0,0 STARLINK-4004,1 52656U 22053A   24008.58700958  .00001271  00000-0  97938-4 0  9993,2 52656  53.2178 105.5305 0001686  58.6293 301.4864 15.08841357 91687,6917.876,95.437,540.908,538.575,0.0
52656.0,STARLINK-4004,PAYLOAD,2024-01-09 12:20:41,15.08847144,0.0001432,53.2168,101.3683,71.5193,288.5955,8.2756e-05,1.03e-05,0.0,0 STARLINK-4004,1 52656U 22053A   24009.51436468  .00001030  00000-0  82756-4 0  9994,2 52656  53.2168 101.3683 0001432  71.5193 288.5955 15.08847144 91823,6917.859,95.437,540.714,538.733,0.0
52656.0,STARLINK-4004,PAYLOAD,2024-01-10 10:36:05,15.08841722,0.0001488,53.2163,97.2056,69.3134,290.8018,2.095e-05,4.5e-07,0.0,0 STARLINK-4004,1 52656U 22053A   24010.44172986  .00000045  00000-0  20950-4 0  9993,2 52656  53.2163  97.2056 0001488  69.3134 290.8018 15.08841722 91963,6917.875,95.437,540.77,538.711,0.0
52656.0,STARLINK-4004,PAYLOAD,2024-01-10 15:22:14,15.08847077,0.0001442,53.2161,96.3122,82.6179,277.4977,6.6203e-05,7.66e-06,0.0,0 STARLINK-4004,1 52656U 22053A   24010.64044418  .00000766  00000-0  66203-4 0  9994,2 52656  53.2161  96.3122 0001442  82.6179 277.4977 15.08847077 91999,6917.859,95.437,540.721,538.726,0.0
52656.0,STARLINK-4004,PAYLOAD,2024-01-11 10:26:51,15.0884932,0.0001502,53.2163,92.7422,86.0221,274.0943,4.7204e-05,4.64e-06,0.0,0 STARLINK-4004,1 52656U 22053A   24011.43532254  .00000464  00000-0  47204-4 0  9997,2 52656  53.2163  92.7422 0001502  86.0221 274.0943 15.08849320 92111,6917.852,95.437,540.756,538.678,0.0
52656.0,STARLINK-4004,PAYLOAD,2024-01-12 11:53:02,15.08840825,0.0001491,53.217,87.9833,96.8215,263.2947,1.4955e-05,-5e-07,0.0,0 STARLINK-4004,1 52656U 22053A   24012.49516964 -.00000050  00000-0  14955-4 0  9993,2 52656  53.2170  87.9833 0001491  96.8215 263.2947 15.08840825 92272,6917.878,95.438,540.774,538.711,0.0
52656.0,STARLINK-4004,PAYLOAD,2024-01-13 03:46:54,15.08833067,0.0001569,53.2165,85.0117,92.409,267.7081,3.1644e-06,-2.38e-06,0.0,0 STARLINK-4004,1 52656U 22053A   24013.15757752 -.00000238  00000-0  31644-5 0  9992,2 52656  53.2165  85.0117 0001569  92.4090 267.7081 15.08833067 92378,6917.902,95.438,540.852,538.681,0.0
52656.0,STARLINK-4004,PAYLOAD,2024-01-13 10:08:26,15.08840266,0.0001524,53.2174,83.8229,83.677,276.4395,-7.5093e-06,-4.08e-06,0.0,0 STARLINK-4004,1 52656U 22053A   24013.42253355 -.00000408  00000-0 -75093-5 0  9998,2 52656  53.2174  83.8229 0001524  83.6770 276.4395 15.08840266 92415,6917.88,95.438,540.799,538.69,0.0
52656.0,STARLINK-4004,PAYLOAD,2024-01-14 11:34:37,15.08839792,0.0001523,53.2174,79.0659,77.2386,282.8777,0.00010529,1.388e-05,0.0,0 STARLINK-4004,1 52656U 22053A   24014.48237528  .00001388  00000-0  10529-3 0  9996,2 52656  53.2174  79.0659 0001523  77.2386 282.8777 15.08839792 92574,6917.881,95.438,540.8,538.692,0.0
52656.0,STARLINK-4004,PAYLOAD,2024-01-14 13:10:00,15.08842602,0.0001525,53.2177,78.7679,87.3743,272.7423,0.00012771,1.745e-05,0.0,0 STARLINK-4004,1 52656U 22053A   24014.54861271  .00001745  00000-0  12771-3 0  9999,2 52656  53.2177  78.7679 0001525  87.3743 272.7423 15.08842602 92587,6917.872,95.437,540.792,538.682,0.0
52656.0,STARLINK-4004,PAYLOAD,2024-01-14 14:45:23,15.0884379,0.0001518,53.2174,78.4694,91.6853,268.4313,0.00013961,1.935e-05,0.0,0 STARLINK-4004,1 52656U 22053A   24014.61485160  .00001935  00000-0  13961-3 0  9999,2 52656  53.2174  78.4694 0001518  91.6853 268.4313 15.08843790 92590,6917.869,95.437,540.784,538.684,0.0
52656.0,STARLINK-4004,PAYLOAD,2024-01-15 11:25:23,15.08854357,0.0001652,53.2186,74.6032,83.2809,276.8371,0.00017686,2.529e-05,0.0,0 STARLINK-4004,1 52656U 22053A   24015.47596570  .00002529  00000-0  17686-3 0  9990,2 52656  53.2186  74.6032 0001652  83.2809 276.8371 15.08854357 92727,6917.837,95.437,540.844,538.559,0.0
52656.0,STARLINK-4004,PAYLOAD,2024-01-16 03:19:16,15.08839278,0.0001466,53.2179,71.6297,106.244,253.8713,-2.416e-05,-6.72e-06,0.0,0 STARLINK-4004,1 52656U 22053A   24016.13838029 -.00000672  00000-0 -24160-4 0  9997,2 52656  53.2179  71.6297 0001466 106.2440 253.8713 15.08839278 92820,6917.883,95.438,540.762,538.733,0.0
52656.0,STARLINK-4004,PAYLOAD,2024-01-16 11:16:12,15.08836742,0.0001515,53.217,70.1435,95.3844,264.7321,-4.6711e-05,-1.031e-05,0.0,0 STARLINK-4004,1 52656U 22053A   24016.46958410 -.00001031  00000-0 -46711-4 0  9996,2 52656  53.2170  70.1435 0001515  95.3844 264.7321 15.08836742 92874,6917.89,95.438,540.803,538.707,0.0
52656.0,STARLINK-4004,PAYLOAD,2024-01-17 09:31:35,15.08846182,0.0001494,53.217,65.9809,90.0089,270.1075,0.0001009,1.318e-05,0.0,0 STARLINK-4004,1 52656U 22053A   24017.39693651  .00001318  00000-0  10090-3 0  9998,2 52656  53.2170  65.9809 0001494  90.0089 270.1075 15.08846182 93013,6917.861,95.437,540.76,538.693,0.0
52656.0,STARLINK-4004,PAYLOAD,2024-01-18 03:00:50,15.08838819,0.0001895,53.2167,62.7143,67.7739,292.3454,0.00020372,2.955e-05,0.0,0 STARLINK-4004,1 52656U 22053A   24018.12558426  .00002955  00000-0  20372-3 0  9992,2 52656  53.2167  62.7143 0001895  67.7739 292.3454 15.08838819 93120,6917.884,95.438,541.06,538.438,0.0
52656.0,STARLINK-4004,PAYLOAD,2024-01-18 09:22:22,15.08840319,0.000184,53.2163,61.523,71.5347,288.5845,0.00019936,2.886e-05,0.0,0 STARLINK-4004,1 52656U 22053A   24018.39054361  .00002886  00000-0  19936-3 0  9997,2 52656  53.2163  61.5230 0001840  71.5347 288.5845 15.08840319 93161,6917.879,95.438,541.017,538.472,0.0
